ORBCOMM FM37            
1 33064U 08031E   24188.46800285  .00001907  00000+0  29848-3 0  9994
2 33064  48.4380 183.7240 0006451 332.9005 194.3327 14.76757469862896
ORBCOMM FM40            
1 33065U 08031F   24188.68278179  .00002481  00000+0  36746-3 0  9993
2 33065  48.4404 171.5115 0007680 343.8583 186.3891 14.78160410863419
VESSELSAT 1             
1 37840U 11058C   24188.84758815  .00000391  00000+0  69042-4 0  9993
2 37840  19.9636  23.2700 0013668 348.6223  11.3871 14.11171893657694
ORBCOMM FM109           
1 40086U 14040A   24188.77808845  .00000661  00000+0  18341-3 0  9999
2 40086  47.0021 206.0631 0001674 204.3443 155.7363 14.56789447530799
ORBCOMM FM107           
1 40087U 14040B   24188.46899737  .00000610  00000+0  17225-3 0  9990
2 40087  47.0039 208.4898 0000575 185.5878 174.5001 14.56800573530704
ORBCOMM FM106           
1 40088U 14040C   24187.98728845  .00001535  00000+0  30148-3 0  9994
2 40088  47.0621  59.7051 0018237 259.2189 100.6648 14.67257666532595
ORBCOMM FM111           
1 40089U 14040D   24188.52929922  .00002807  00000+0  37132-3 0  9998
2 40089  47.0048 311.3460 0033170 339.0065  20.9467 14.82178863538871
ORBCOMM FM104           
1 40090U 14040E   24188.56780621  .00000579  00000+0  17075-3 0  9993
2 40090  47.0044 237.5844 0016043  64.3232 295.9307 14.55275825530255
